[
  {
    "COMMENT": "GENERATED VIA SPACETRACK.ORG API",
    "ORIGINATOR": "18 SPCS",
    "NORAD_CAT_ID": "54754",
    "OBJECT_NAME": "SWOT",
    "OBJECT_TYPE": "PAYLOAD",
    "CLASSIFICATION_TYPE": "U",
    "INTLDES": "22173A",
    "EPOCH": "2023-03-20 18:36:04",
    "EPOCH_MICROSECONDS": "293216",
    "MEAN_MOTION": "14.09854679",
    "ECCENTRICITY": "0.0000936",
    "INCLINATION": "77.6058",
    "RA_OF_ASC_NODE": "196.6517",
    "ARG_OF_PERICENTER": "215.6543",
    "MEAN_ANOMALY": "144.4552",
    "EPHEMERIS_TYPE": "0",
    "ELEMENT_SET_NO": "999",
    "REV_AT_EPOCH": "1328",
    "BSTAR": "0.00015818",
    "MEAN_MOTION_DOT": "0.00000275",
    "MEAN_MOTION_DDOT": "0",
    "FILE": "3866072",
    "TLE_LINE0": "0 SWOT",
    "TLE_LINE1": "1 54754U 22173A   23079.77504969  .00000275  00000-0  15818-3 0  9998",
    "TLE_LINE2": "2 54754  77.6058 196.6517 0000936 215.6543 144.4552 14.09854679 13281",
    "OBJECT_ID": "2022-173A",
    "OBJECT_NUMBER": "54754",
    "SEMIMAJOR_AXIS": "7238.006",
    "PERIOD": "102.138",
    "APOGEE": "860.549",
    "PERIGEE": "859.194",
    "DECAYED": "0"
  },
  {
    "COMMENT": "GENERATED VIA SPACETRACK.ORG API",
    "ORIGINATOR": "18 SPCS",
    "NORAD_CAT_ID": "54754",
    "OBJECT_NAME": "SWOT",
    "OBJECT_TYPE": "PAYLOAD",
    "CLASSIFICATION_TYPE": "U",
    "INTLDES": "22173A",
    "EPOCH": "2023-03-20 18:36:04",
    "EPOCH_MICROSECONDS": "293216",
    "MEAN_MOTION": "14.09854679",
    "ECCENTRICITY": "0.0000936",
    "INCLINATION": "77.6058",
    "RA_OF_ASC_NODE": "196.6517",
    "ARG_OF_PERICENTER": "215.6543",
    "MEAN_ANOMALY": "144.4552",
    "EPHEMERIS_TYPE": "0",
    "ELEMENT_SET_NO": "999",
    "REV_AT_EPOCH": "1328",
    "BSTAR": "0.00015818",
    "MEAN_MOTION_DOT": "0.00000275",
    "MEAN_MOTION_DDOT": "0",
    "FILE": "3866115",
    "TLE_LINE0": "0 SWOT",
    "TLE_LINE1": "1 54754U 22173A   23079.77504969  .00000275  00000-0  15818-3 0  9998",
    "TLE_LINE2": "2 54754  77.6058 196.6517 0000936 215.6543 144.4552 14.09854679 13281",
    "OBJECT_ID": "2022-173A",
    "OBJECT_NUMBER": "54754",
    "SEMIMAJOR_AXIS": "7238.006",
    "PERIOD": "102.138",
    "APOGEE": "860.549",
    "PERIGEE": "859.194",
    "DECAYED": "0"
  },
  {
    "COMMENT": "GENERATED VIA SPACETRACK.ORG API",
    "ORIGINATOR": "18 SPCS",
    "NORAD_CAT_ID": "54754",
    "OBJECT_NAME": "SWOT",
    "OBJECT_TYPE": "PAYLOAD",
    "CLASSIFICATION_TYPE": "U",
    "INTLDES": "22173A",
    "EPOCH": "2023-03-21 11:37:56",
    "EPOCH_MICROSECONDS": "952480",
    "MEAN_MOTION": "14.09855073",
    "ECCENTRICITY": "0.0000939",
    "INCLINATION": "77.6059",
    "RA_OF_ASC_NODE": "195.6782",
    "ARG_OF_PERICENTER": "216.2931",
    "MEAN_ANOMALY": "143.8162",
    "EPHEMERIS_TYPE": "0",
    "ELEMENT_SET_NO": "999",
    "REV_AT_EPOCH": "1338",
    "BSTAR": "0.00015563",
    "MEAN_MOTION_DOT": "0.00000271",
    "MEAN_MOTION_DDOT": "0",
    "FILE": "3866730",
    "TLE_LINE0": "0 SWOT",
    "TLE_LINE1": "1 54754U 22173A   23080.48468695  .00000271  00000-0  15563-3 0  9996",
    "TLE_LINE2": "2 54754  77.6059 195.6782 0000939 216.2931 143.8162 14.09855073 13386",
    "OBJECT_ID": "2022-173A",
    "OBJECT_NUMBER": "54754",
    "SEMIMAJOR_AXIS": "7238.005",
    "PERIOD": "102.138",
    "APOGEE": "860.549",
    "PERIGEE": "859.190",
    "DECAYED": "0"
  },
  {
    "COMMENT": "GENERATED VIA SPACETRACK.ORG API",
    "ORIGINATOR": "18 SPCS",
    "NORAD_CAT_ID": "54754",
    "OBJECT_NAME": "SWOT",
    "OBJECT_TYPE": "PAYLOAD",
    "CLASSIFICATION_TYPE": "U",
    "INTLDES": "22173A",
    "EPOCH": "2023-03-22 01:15:27",
    "EPOCH_MICROSECONDS": "62784",
    "MEAN_MOTION": "14.09855464",
    "ECCENTRICITY": "0.0000948",
    "INCLINATION": "77.606",
    "RA_OF_ASC_NODE": "194.8992",
    "ARG_OF_PERICENTER": "217.1939",
    "MEAN_ANOMALY": "142.9152",
    "EPHEMERIS_TYPE": "0",
    "ELEMENT_SET_NO": "999",
    "REV_AT_EPOCH": "1346",
    "BSTAR": "0.0001625",
    "MEAN_MOTION_DOT": "0.00000283",
    "MEAN_MOTION_DDOT": "0",
    "FILE": "3867256",
    "TLE_LINE0": "0 SWOT",
    "TLE_LINE1": "1 54754U 22173A   23081.05239656  .00000283  00000-0  16250-3 0  9990",
    "TLE_LINE2": "2 54754  77.6060 194.8992 0000948 217.1939 142.9152 14.09855464 13462",
    "OBJECT_ID": "2022-173A",
    "OBJECT_NUMBER": "54754",
    "SEMIMAJOR_AXIS": "7238.003",
    "PERIOD": "102.138",
    "APOGEE": "860.555",
    "PERIGEE": "859.182",
    "DECAYED": "0"
  },
  {
    "COMMENT": "GENERATED VIA SPACETRACK.ORG API",
    "ORIGINATOR": "18 SPCS",
    "NORAD_CAT_ID": "54754",
    "OBJECT_NAME": "SWOT",
    "OBJECT_TYPE": "PAYLOAD",
    "CLASSIFICATION_TYPE": "U",
    "INTLDES": "22173A",
    "EPOCH": "2023-03-22 16:35:08",
    "EPOCH_MICROSECONDS": "417760",
    "MEAN_MOTION": "14.09855996",
    "ECCENTRICITY": "0.0000968",
    "INCLINATION": "77.606",
    "RA_OF_ASC_NODE": "194.0229",
    "ARG_OF_PERICENTER": "217.7885",
    "MEAN_ANOMALY": "142.3204",
    "EPHEMERIS_TYPE": "0",
    "ELEMENT_SET_NO": "999",
    "REV_AT_EPOCH": "1355",
    "BSTAR": "0.00017882",
    "MEAN_MOTION_DOT": "0.00000312",
    "MEAN_MOTION_DDOT": "0",
    "FILE": "3868201",
    "TLE_LINE0": "0 SWOT",
    "TLE_LINE1": "1 54754U 22173A   23081.69106965  .00000312  00000-0  17882-3 0  9991",
    "TLE_LINE2": "2 54754  77.6060 194.0229 0000968 217.7885 142.3204 14.09855996 13557",
    "OBJECT_ID": "2022-173A",
    "OBJECT_NUMBER": "54754",
    "SEMIMAJOR_AXIS": "7238.002",
    "PERIOD": "102.138",
    "APOGEE": "860.567",
    "PERIGEE": "859.166",
    "DECAYED": "0"
  },
  {
    "COMMENT": "GENERATED VIA SPACETRACK.ORG API",
    "ORIGINATOR": "18 SPCS",
    "NORAD_CAT_ID": "54754",
    "OBJECT_NAME": "SWOT",
    "OBJECT_TYPE": "PAYLOAD",
    "CLASSIFICATION_TYPE": "U",
    "INTLDES": "22173A",
    "EPOCH": "2023-03-23 11:19:12",
    "EPOCH_MICROSECONDS": "284544",
    "MEAN_MOTION": "14.0985655",
    "ECCENTRICITY": "0.0000974",
    "INCLINATION": "77.6061",
    "RA_OF_ASC_NODE": "192.9519",
    "ARG_OF_PERICENTER": "217.6571",
    "MEAN_ANOMALY": "142.4517",
    "EPHEMERIS_TYPE": "0",
    "ELEMENT_SET_NO": "999",
    "REV_AT_EPOCH": "1366",
    "BSTAR": "0.0001878",
    "MEAN_MOTION_DOT": "0.00000328",
    "MEAN_MOTION_DDOT": "0",
    "FILE": "3868445",
    "TLE_LINE0": "0 SWOT",
    "TLE_LINE1": "1 54754U 22173A   23082.47166996  .00000328  00000-0  18780-3 0  9993",
    "TLE_LINE2": "2 54754  77.6061 192.9519 0000974 217.6571 142.4517 14.09856550 13662",
    "OBJECT_ID": "2022-173A",
    "OBJECT_NUMBER": "54754",
    "SEMIMAJOR_AXIS": "7238.000",
    "PERIOD": "102.138",
    "APOGEE": "860.570",
    "PERIGEE": "859.160",
    "DECAYED": "0"
  },
  {
    "COMMENT": "GENERATED VIA SPACETRACK.ORG API",
    "ORIGINATOR": "18 SPCS",
    "NORAD_CAT_ID": "54754",
    "OBJECT_NAME": "SWOT",
    "OBJECT_TYPE": "PAYLOAD",
    "CLASSIFICATION_TYPE": "U",
    "INTLDES": "22173A",
    "EPOCH": "2023-03-23 11:19:12",
    "EPOCH_MICROSECONDS": "284544",
    "MEAN_MOTION": "14.0985655",
    "ECCENTRICITY": "0.0000974",
    "INCLINATION": "77.6061",
    "RA_OF_ASC_NODE": "192.9519",
    "ARG_OF_PERICENTER": "217.6571",
    "MEAN_ANOMALY": "142.4517",
    "EPHEMERIS_TYPE": "0",
    "ELEMENT_SET_NO": "999",
    "REV_AT_EPOCH": "1366",
    "BSTAR": "0.0001878",
    "MEAN_MOTION_DOT": "0.00000328",
    "MEAN_MOTION_DDOT": "0",
    "FILE": "3868494",
    "TLE_LINE0": "0 SWOT",
    "TLE_LINE1": "1 54754U 22173A   23082.47166996  .00000328  00000-0  18780-3 0  9993",
    "TLE_LINE2": "2 54754  77.6061 192.9519 0000974 217.6571 142.4517 14.09856550 13662",
    "OBJECT_ID": "2022-173A",
    "OBJECT_NUMBER": "54754",
    "SEMIMAJOR_AXIS": "7238.000",
    "PERIOD": "102.138",
    "APOGEE": "860.570",
    "PERIGEE": "859.160",
    "DECAYED": "0"
  },
  {
    "COMMENT": "GENERATED VIA SPACETRACK.ORG API",
    "ORIGINATOR": "18 SPCS",
    "NORAD_CAT_ID": "54754",
    "OBJECT_NAME": "SWOT",
    "OBJECT_TYPE": "PAYLOAD",
    "CLASSIFICATION_TYPE": "U",
    "INTLDES": "22173A",
    "EPOCH": "2023-03-23 18:07:57",
    "EPOCH_MICROSECONDS": "317664",
    "MEAN_MOTION": "14.09856775",
    "ECCENTRICITY": "0.0000975",
    "INCLINATION": "77.6062",
    "RA_OF_ASC_NODE": "192.5624",
    "ARG_OF_PERICENTER": "217.0284",
    "MEAN_ANOMALY": "143.0806",
    "EPHEMERIS_TYPE": "0",
    "ELEMENT_SET_NO": "999",
    "REV_AT_EPOCH": "1370",
    "BSTAR": "0.00019205",
    "MEAN_MOTION_DOT": "0.00000335",
    "MEAN_MOTION_DDOT": "0",
    "FILE": "3868816",
    "TLE_LINE0": "0 SWOT",
    "TLE_LINE1": "1 54754U 22173A   23082.75552451  .00000335  00000-0  19205-3 0  9990",
    "TLE_LINE2": "2 54754  77.6062 192.5624 0000975 217.0284 143.0806 14.09856775 13704",
    "OBJECT_ID": "2022-173A",
    "OBJECT_NUMBER": "54754",
    "SEMIMAJOR_AXIS": "7237.999",
    "PERIOD": "102.138",
    "APOGEE": "860.570",
    "PERIGEE": "859.158",
    "DECAYED": "0"
  },
  {
    "COMMENT": "GENERATED VIA SPACETRACK.ORG API",
    "ORIGINATOR": "18 SPCS",
    "NORAD_CAT_ID": "54754",
    "OBJECT_NAME": "SWOT",
    "OBJECT_TYPE": "PAYLOAD",
    "CLASSIFICATION_TYPE": "U",
    "INTLDES": "22173A",
    "EPOCH": "2023-03-24 11:09:49",
    "EPOCH_MICROSECONDS": "893120",
    "MEAN_MOTION": "14.09857424",
    "ECCENTRICITY": "0.0000946",
    "INCLINATION": "77.6062",
    "RA_OF_ASC_NODE": "191.5888",
    "ARG_OF_PERICENTER": "214.671",
    "MEAN_ANOMALY": "145.4385",
    "EPHEMERIS_TYPE": "0",
    "ELEMENT_SET_NO": "999",
    "REV_AT_EPOCH": "1380",
    "BSTAR": "0.00020968",
    "MEAN_MOTION_DOT": "0.00000366",
    "MEAN_MOTION_DDOT": "0",
    "FILE": "3869846",
    "TLE_LINE0": "0 SWOT",
    "TLE_LINE1": "1 54754U 22173A   23083.46516080  .00000366  00000-0  20968-3 0  9999",
    "TLE_LINE2": "2 54754  77.6062 191.5888 0000946 214.6710 145.4385 14.09857424 13801",
    "OBJECT_ID": "2022-173A",
    "OBJECT_NUMBER": "54754",
    "SEMIMAJOR_AXIS": "7237.997",
    "PERIOD": "102.138",
    "APOGEE": "860.546",
    "PERIGEE": "859.177",
    "DECAYED": "0"
  }
]